NORAD_CAT_ID,OBJECT_NAME,OBJECT_TYPE,EPOCH,MEAN_MOTION,ECCENTRICITY,INCLINATION,RA_OF_ASC_NODE,ARG_OF_PERICENTER,MEAN_ANOMALY,BSTAR,MEAN_MOTION_DOT,MEAN_MOTION_DDOT,TLE_LINE0,TLE_LINE1,TLE_LINE2,SEMIMAJOR_AXIS,PERIOD,APOGEE,PERIGEE,DECAYED
52837.0,STARLINK-4036,PAYLOAD,2023-01-24 13:20:44,15.0884263,0.0001547,53.2147,112.388,104.0189,256.0976,0.00045,6.882e-05,0.0,0 STARLINK-4036,1 52837U 22062H   23024.55607440  .00006882  00000-0  45000-3 0  9995,2 52837  53.2147 112.3880 0001547 104.0189 256.0976 15.08842630 33662,6917.871999999999,95.437,540.808,538.6669999999999,0.0
52837.0,STARLINK-4036,PAYLOAD,2023-01-25 05:14:36,15.08832425,0.0001638,53.2157,109.4154,95.5785,264.5393,0.00010641,1.406e-05,0.0,0 STARLINK-4036,1 52837U 22062H   23025.21848139  .00001406  00000-0  10641-3 0  9991,2 52837  53.2157 109.4154 0001638  95.5785 264.5393 15.08832425 33760,6917.904,95.438,540.9019999999999,538.635,0.0
52837.0,STARLINK-4036,PAYLOAD,2023-01-25 13:11:32,15.08836096,0.0001411,53.2149,107.9268,94.974,265.1413,0.00021385,3.117e-05,0.0,0 STARLINK-4036,1 52837U 22062H   23025.54968288  .00003117  00000-0  21385-3 0  9993,2 52837  53.2149 107.9268 0001411  94.9740 265.1413 15.08836096 33817,6917.892,95.438,540.7330000000001,538.781,0.0
52837.0,STARLINK-4036,PAYLOAD,2023-01-26 11:26:56,15.08858657,0.0001465,53.2142,103.7634,87.6402,272.4757,0.00079651,0.00012418,0.0,0 STARLINK-4036,1 52837U 22062H   23026.47703881  .00012418  00000-0  79651-3 0  9995,2 52837  53.2142 103.7634 0001465  87.6402 272.4757 15.08858657 33958,6917.823,95.436,540.702,538.675,0.0
52837.0,STARLINK-4036,PAYLOAD,2023-01-27 04:56:10,15.08856335,0.0001757,53.215,100.4918,110.1702,249.9479,0.00027505,4.094e-05,0.0,0 STARLINK-4036,1 52837U 22062H   23027.20567370  .00004094  00000-0  27505-3 0  9990,2 52837  53.2150 100.4918 0001757 110.1702 249.9479 15.08856335 34069,6917.83,95.437,540.911,538.48,0.0
52837.0,STARLINK-4036,PAYLOAD,2023-01-27 12:53:05,15.08850384,0.0001548,53.2147,99.0034,115.4271,244.6881,0.00015464,2.175e-05,0.0,0 STARLINK-4036,1 52837U 22062H   23027.53687229  .00002175  00000-0  15464-3 0  9991,2 52837  53.2147  99.0034 0001548 115.4271 244.6881 15.08850384 34117,6917.849,95.437,540.785,538.643,0.0
52837.0,STARLINK-4036,PAYLOAD,2023-01-28 04:46:57,15.08841414,0.0001675,53.2132,96.03,101.1117,259.0063,-2.8625e-05,-7.44e-06,0.0,0 STARLINK-4036,1 52837U 22062H   23028.19927635 -.00000744  00000-0 -28625-4 0  9998,2 52837  53.2132  96.0300 0001675 101.1117 259.0063 15.08841414 34213,6917.876,95.437,540.9,538.582,0.0
52837.0,STARLINK-4036,PAYLOAD,2023-01-28 11:08:29,15.08839538,0.0001647,53.2151,94.8374,122.3259,237.7892,-6.5233e-05,-1.326e-05,0.0,0 STARLINK-4036,1 52837U 22062H   23028.46423558 -.00001326  00000-0 -65233-4 0  9996,2 52837  53.2151  94.8374 0001647 122.3259 237.7892 15.08839538 34253,6917.882,95.438,540.886,538.607,0.0
52837.0,STARLINK-4036,PAYLOAD,2023-01-29 04:37:45,15.08826579,0.0001425,53.2149,91.5695,105.1947,254.9203,-5.334e-05,-1.136e-05,0.0,0 STARLINK-4036,1 52837U 22062H   23029.19288686 -.00001136  00000-0 -53340-4 0  9993,2 52837  53.2149  91.5695 0001425 105.1947 254.9203 15.08826579 34367,6917.921,95.438,540.772,538.801,0.0
52837.0,STARLINK-4036,PAYLOAD,2023-01-29 20:31:36,15.088359,0.0001347,53.2155,88.5963,96.9156,263.199,2.5559e-05,1.19e-06,0.0,0 STARLINK-4036,1 52837U 22062H   23029.85528611  .00000119  00000-0  25559-4 0  9990,2 52837  53.2155  88.5963 0001347  96.9156 263.1990 15.08835900 34464,6917.893,95.438,540.69,538.826,0.0
52837.0,STARLINK-4036,PAYLOAD,2023-01-30 12:25:27,15.08850245,0.0001334,53.2149,85.6227,97.9229,262.1914,0.00038141,5.789e-05,0.0,0 STARLINK-4036,1 52837U 22062H   23030.51768384  .00005789  00000-0  38141-3 0  9996,2 52837  53.2149  85.6227 0001334  97.9229 262.1914 15.08850245 34561,6917.849,95.437,540.637,538.791,0.0
52837.0,STARLINK-4036,PAYLOAD,2023-01-30 20:22:23,15.08848661,0.0001141,53.2143,84.1362,101.5729,258.5392,0.00031553,4.739e-05,0.0,0 STARLINK-4036,1 52837U 22062H   23030.84888365  .00004739  00000-0  31553-3 0  9998,2 52837  53.2143  84.1362 0001141 101.5729 258.5392 15.08848661 34616,6917.854,95.437,540.508,538.93,0.0
52837.0,STARLINK-4036,PAYLOAD,2023-01-31 04:19:19,15.08836383,0.0001325,53.2166,82.6507,94.2038,265.9106,3.0272e-05,1.94e-06,0.0,0 STARLINK-4036,1 52837U 22062H   23031.18008817  .00000194  00000-0  30272-4 0  9991,2 52837  53.2166  82.6507 0001325  94.2038 265.9106 15.08836383 34668,6917.891,95.438,540.673,538.84,0.0
52837.0,STARLINK-4036,PAYLOAD,2023-01-31 13:51:38,15.08845185,0.0001337,53.2151,80.8645,86.7578,273.3567,0.00018874,2.718e-05,0.0,0 STARLINK-4036,1 52837U 22062H   23031.57752535  .00002718  00000-0  18874-3 0  9994,2 52837  53.2151  80.8645 0001337  86.7578 273.3567 15.08845185 34724,6917.865,95.437,540.654,538.805,0.0
52837.0,STARLINK-4036,PAYLOAD,2023-01-31 20:13:10,15.08846133,0.0001435,53.2145,79.6751,80.0235,280.0919,0.00016287,2.305e-05,0.0,0 STARLINK-4036,1 52837U 22062H   23031.84248537  .00002305  00000-0  16287-3 0  9994,2 52837  53.2145  79.6751 0001435  80.0235 280.0919 15.08846133 34761,6917.862,95.437,540.719,538.734,0.0
52837.0,STARLINK-4036,PAYLOAD,2023-02-01 12:07:01,15.08853502,0.0001439,53.2147,76.7009,76.5651,283.5502,0.00032262,4.852e-05,0.0,0 STARLINK-4036,1 52837U 22062H   23032.50487988  .00004852  00000-0  32262-3 0  9993,2 52837  53.2147  76.7009 0001439  76.5651 283.5502 15.08853502 34868,6917.839,95.437,540.7,538.709,0.0
52837.0,STARLINK-4036,PAYLOAD,2023-02-02 02:25:30,15.08839924,0.0001528,53.2143,74.025,84.621,275.4956,7.1863e-05,8.56e-06,0.0,0 STARLINK-4036,1 52837U 22062H   23033.10104450  .00000856  00000-0  71863-4 0  9991,2 52837  53.2143  74.0250 0001528  84.6210 275.4956 15.08839924 34958,6917.881,95.438,540.803,538.689,0.0
52837.0,STARLINK-4036,PAYLOAD,2023-02-02 11:57:48,15.08844992,0.00014,53.2142,72.2404,86.1568,273.9584,0.00020351,2.953e-05,0.0,0 STARLINK-4036,1 52837U 22062H   23033.49848301  .00002953  00000-0  20351-3 0  9998,2 52837  53.2142  72.2404 0001400  86.1568 273.9584 15.08844992 35019,6917.865,95.437,540.699,538.762,0.0
52837.0,STARLINK-4036,PAYLOAD,2023-02-03 05:27:03,15.08842515,0.000118,53.2146,68.9696,84.9509,275.1617,0.00023335,3.428e-05,0.0,0 STARLINK-4036,1 52837U 22062H   23034.22712531  .00003428  00000-0  23335-3 0  9998,2 52837  53.2146  68.9696 0001180  84.9509 275.1617 15.08842515 35126,6917.873,95.437,540.554,538.921,0.0
52837.0,STARLINK-4036,PAYLOAD,2023-02-03 11:48:36,15.08848106,0.000136,53.2144,67.78,90.6207,269.4941,0.00056142,8.66e-05,0.0,0 STARLINK-4036,1 52837U 22062H   23034.49208533  .00008660  00000-0  56142-3 0  9994,2 52837  53.2144  67.7800 0001360  90.6207 269.4941 15.08848106 35169,6917.856,95.437,540.661,538.78,0.0
52837.0,STARLINK-4036,PAYLOAD,2023-02-04 06:53:13,15.0884418,0.0001538,53.2137,64.2111,97.5506,262.5661,0.00023127,3.395e-05,0.0,0 STARLINK-4036,1 52837U 22062H   23035.28696591  .00003395  00000-0  23127-3 0  9994,2 52837  53.2137  64.2111 0001538  97.5506 262.5661 15.08844180 35287,6917.868,95.437,540.797,538.669,0.0
52837.0,STARLINK-4036,PAYLOAD,2023-02-04 11:39:23,15.08848436,0.0001544,53.2141,63.3179,108.1651,251.951,0.00026139,3.875e-05,0.0,0 STARLINK-4036,1 52837U 22062H   23035.48568296  .00003875  00000-0  26139-3 0  9995,2 52837  53.2141  63.3179 0001544 108.1651 251.9510 15.08848436 35310,6917.855,95.437,540.788,538.651,0.0
52837.0,STARLINK-4036,PAYLOAD,2023-02-05 05:08:37,15.08840578,0.0001553,53.2153,60.0466,114.3823,245.7331,5.6187e-05,6.06e-06,0.0,0 STARLINK-4036,1 52837U 22062H   23036.21432599  .00000606  00000-0  56187-4 0  9999,2 52837  53.2153  60.0466 0001553 114.3823 245.7331 15.08840578 35429,6917.879,95.438,540.818,538.669,0.0
52837.0,STARLINK-4036,PAYLOAD,2023-02-05 06:44:00,15.0884068,0.0001678,53.2149,59.7458,128.6748,231.4395,5.1215e-05,5.27e-06,0.0,0 STARLINK-4036,1 52837U 22062H   23036.28056504  .00000527  00000-0  51215-4 0  9993,2 52837  53.2149  59.7458 0001678 128.6748 231.4395 15.08840680 35439,6917.878,95.438,540.904,538.582,0.0
52837.0,STARLINK-4036,PAYLOAD,2023-02-05 17:51:42,15.08841515,0.0001281,53.2139,57.6689,99.3582,260.7555,0.00012364,1.68e-05,0.0,0 STARLINK-4036,1 52837U 22062H   23036.74424711  .00001680  00000-0  12364-3 0  9995,2 52837  53.2139  57.6689 0001281  99.3582 260.7555 15.08841515 35500,6917.876,95.437,540.627,538.855,0.0
52837.0,STARLINK-4036,PAYLOAD,2023-02-06 09:45:34,15.08848827,0.0001409,53.2158,54.6971,102.3486,257.7664,0.00028939,4.322e-05,0.0,0 STARLINK-4036,1 52837U 22062H   23037.40664609  .00004322  00000-0  28939-3 0  9992,2 52837  53.2158  54.6971 0001409 102.3486 257.7664 15.08848827 35603,6917.853,95.437,540.693,538.744,0.0
52837.0,STARLINK-4036,PAYLOAD,2023-02-06 11:20:57,15.08850335,0.000135,53.2156,54.3993,99.7889,260.3255,0.00032609,4.907e-05,0.0,0 STARLINK-4036,1 52837U 22062H   23037.47288575  .00004907  00000-0  32609-3 0  9991,2 52837  53.2156  54.3993 0001350  99.7889 260.3255 15.08850335 35617,6917.849,95.437,540.648,538.78,0.0
52837.0,STARLINK-4036,PAYLOAD,2023-02-06 17:42:30,15.08838108,9.64e-05,53.2156,53.2086,100.9134,259.1967,0.00013216,1.816e-05,0.0,0 STARLINK-4036,1 52837U 22062H   23037.73784812  .00001816  00000-0  13216-3 0  9994,2 52837  53.2156  53.2086 0000964 100.9134 259.1967 15.08838108 35650,6917.886,95.438,540.418,539.084,0.0
52837.0,STARLINK-4036,PAYLOAD,2023-02-07 04:50:11,15.0885767,0.000114,53.215,51.1275,94.4224,265.6898,0.00053863,8.299e-05,0.0,0 STARLINK-4036,1 52837U 22062H   23038.20152376  .00008299  00000-0  53863-3 0  9995,2 52837  53.2150  51.1275 0001140  94.4224 265.6898 15.08857670 35723,6917.826,95.436,540.48,538.903,0.0
52837.0,STARLINK-4036,PAYLOAD,2023-02-07 12:47:06,15.08879162,0.0001158,53.215,49.6402,96.6868,263.4256,0.001376,0.00021702,0.0,0 STARLINK-4036,1 52837U 22062H   23038.53271689  .00021702  00000-0  13760-2 0  9995,2 52837  53.2150  49.6402 0001158  96.6868 263.4256 15.08879162 35773,6917.761,95.435,540.427,538.825,0.0
